[{"OBJECT_NAME":"STARLINK-32562","OBJECT_ID":"2024-225F","EPOCH":"2026-03-09T16:21:06.295104","MEAN_MOTION":14.98336336,"ECCENTRICITY":0.00034535,"INCLINATION":70.0022,"RA_OF_ASC_NODE":164.4792,"ARG_OF_PERICENTER":273.4168,"MEAN_ANOMALY":86.6596,"EPHEMERIS_TYPE":0,"CLASSIFICATION_TYPE":"U","NORAD_CAT_ID":62168,"ELEMENT_SET_NO":999,"REV_AT_EPOCH":6987,"BSTAR":0.00050041941,"MEAN_MOTION_DOT":5.884e-5,"MEAN_MOTION_DDOT":0},{"OBJECT_NAME":"ION SCV-022","OBJECT_ID":"2025-276S","EPOCH":"2026-03-09T17:53:05.489952","MEAN_MOTION":14.97347265,"ECCENTRICITY":0.00045393,"INCLINATION":97.5376,"RA_OF_ASC_NODE":142.978,"ARG_OF_PERICENTER":154.7099,"MEAN_ANOMALY":205.4346,"EPHEMERIS_TYPE":0,"CLASSIFICATION_TYPE":"U","NORAD_CAT_ID":66682,"ELEMENT_SET_NO":999,"REV_AT_EPOCH":1519,"BSTAR":0.00017276803,"MEAN_MOTION_DOT":1.95e-5,"MEAN_MOTION_DDOT":0}]
