STARLINK-32562          
1 62168U 24225F   26068.68132286  .00005884  00000+0  50042-3 0  9994
2 62168  70.0022 164.4792 0003454 273.4168  86.6596 14.98336336 69872
ION SCV-022             
1 66682U 25276S   26068.74520243  .00001950  00000+0  17277-3 0  9990
2 66682  97.5376 142.9780 0004539 154.7099 205.4346 14.97347265 15192
